NORAD_CAT_ID,OBJECT_NAME,OBJECT_TYPE,EPOCH,MEAN_MOTION,ECCENTRICITY,INCLINATION,RA_OF_ASC_NODE,ARG_OF_PERICENTER,MEAN_ANOMALY,BSTAR,MEAN_MOTION_DOT,MEAN_MOTION_DDOT,TLE_LINE0,TLE_LINE1,TLE_LINE2,SEMIMAJOR_AXIS,PERIOD,APOGEE,PERIGEE,DECAYED
52698.0,STARLINK-4030,PAYLOAD,2024-03-02 14:34:13,15.08863152,0.0001356,53.2172,218.0033,92.1618,267.9529,0.00031106,4.669e-05,0.0,0 STARLINK-4030,1 52698U 22053AU  24062.60710469  .00004669  00000-0  31106-3 0  9998,2 52698  53.2172 218.0033 0001356  92.1618 267.9529 15.08863152 99806,6917.81,95.436,540.613,538.737,0.0
52698.0,STARLINK-4030,PAYLOAD,2024-03-02 17:44:59,15.08870256,0.000124,53.2164,217.4076,83.1216,276.9917,0.0003564,5.393e-05,0.0,0 STARLINK-4030,1 52698U 22053AU  24062.73958108  .00005393  00000-0  35640-3 0  9998,2 52698  53.2164 217.4076 0001240  83.1216 276.9917 15.08870256 99425,6917.788,95.436,540.511,538.795,0.0
52698.0,STARLINK-4030,PAYLOAD,2024-03-03 03:17:19,15.08850195,0.000125,53.2157,215.6232,88.4467,271.6669,7.0224e-05,8.3e-06,0.0,0 STARLINK-4030,1 52698U 22053AU  24063.13703237  .00000830  00000-0  70224-4 0  9993,2 52698  53.2157 215.6232 0001250  88.4467 271.6669 15.08850195 99480,6917.849,95.437,540.579,538.849,0.0
52698.0,STARLINK-4030,PAYLOAD,2024-03-03 09:38:52,15.08836289,0.0001977,53.2156,214.434,90.1724,269.9495,-7.0495e-05,-1.41e-05,0.0,0 STARLINK-4030,1 52698U 22053AU  24063.40200166 -.00001410  00000-0 -70495-4 0  9993,2 52698  53.2156 214.4340 0001977  90.1724 269.9495 15.08836289 99528,6917.892,95.438,541.124,538.389,0.0
52698.0,STARLINK-4030,PAYLOAD,2024-03-03 14:25:02,15.08832866,0.0001693,53.2153,213.54,88.5586,271.56,-0.00037904,-6.314e-05,0.0,0 STARLINK-4030,1 52698U 22053AU  24063.60071841 -.00006314  00000-0 -37904-3 0  9996,2 52698  53.2153 213.5400 0001693  88.5586 271.5600 15.08832866 99955,6917.902,95.438,540.938,538.596,0.0
52698.0,STARLINK-4030,PAYLOAD,2024-03-03 19:11:11,15.08832228,0.0001277,53.2149,212.6493,96.624,263.4897,-0.00023366,-4.004e-05,0.0,0 STARLINK-4030,1 52698U 22053AU  24063.79943550 -.00004004  00000-0 -23366-3 0  9992,2 52698  53.2149 212.6493 0001277  96.6240 263.4897 15.08832228 99980,6917.904,95.438,540.653,538.886,0.0
52698.0,STARLINK-4030,PAYLOAD,2024-03-04 14:15:49,15.08850917,0.0001205,53.2142,209.0823,101.6864,258.4263,0.001112,0.00017459,0.0,0 STARLINK-4030,1 52698U 22053AU  24064.59431820  .00017459  00000-0  11120-2 0  9993,2 52698  53.2142 209.0823 0001205 101.6864 258.4263 15.08850917100103,6917.847,95.437,540.546,538.878,0.0
52698.0,STARLINK-4030,PAYLOAD,2024-03-04 15:51:12,15.08856516,0.0001214,53.2141,208.785,100.7795,259.3334,0.0012279,0.00019317,0.0,0 STARLINK-4030,1 52698U 22053AU  24064.66055710  .00019317  00000-0  12279-2 0  9992,2 52698  53.2141 208.7850 0001214 100.7795 259.3334 15.08856516 99715,6917.83,95.437,540.535,538.855,0.0
52698.0,STARLINK-4030,PAYLOAD,2024-03-05 14:06:37,15.08815709,0.0001124,53.2146,204.6222,65.6816,294.4293,0.00095922,0.00015001,0.0,0 STARLINK-4030,1 52698U 22053AU  24065.58793009  .00015001  00000-0  95922-3 0  9997,2 52698  53.2146 204.6222 0001124  65.6816 294.4293 15.08815709100256,6917.955,95.439,540.597,539.042,0.0
52698.0,STARLINK-4030,PAYLOAD,2024-03-05 18:52:46,15.08821777,0.0001203,53.2147,203.7291,67.2075,292.9044,0.0010731,0.00016823,0.0,0 STARLINK-4030,1 52698U 22053AU  24065.78665292  .00016823  00000-0  10731-2 0  9998,2 52698  53.2147 203.7291 0001203  67.2075 292.9044 15.08821777 99881,6917.936,95.439,540.633,538.969,0.0
52698.0,STARLINK-4030,PAYLOAD,2024-03-06 13:57:24,15.08844867,0.0001346,53.2148,200.16,74.4789,285.6352,0.00112,0.00017584,0.0,0 STARLINK-4030,1 52698U 22053AU  24066.58153756  .00017584  00000-0  11200-2 0  9991,2 52698  53.2148 200.1600 0001346  74.4789 285.6352 15.08844867100404,6917.866,95.437,540.662,538.799,0.0
52698.0,STARLINK-4030,PAYLOAD,2024-03-07 12:12:48,15.08850265,0.0001303,53.2151,195.9983,87.6567,272.4574,0.00050414,7.747e-05,0.0,0 STARLINK-4030,1 52698U 22053AU  24067.50889493  .00007747  00000-0  50414-3 0  9999,2 52698  53.2151 195.9983 0001303  87.6567 272.4574 15.08850265100540,6917.849,95.437,540.615,538.813,0.0
52698.0,STARLINK-4030,PAYLOAD,2024-03-08 12:03:35,15.08847374,0.0001309,53.217,191.5404,86.0797,274.0345,0.00014386,2.003e-05,0.0,0 STARLINK-4030,1 52698U 22053AU  24068.50249129  .00002003  00000-0  14386-3 0  9994,2 52698  53.2170 191.5404 0001309  86.0797 274.0345 15.08847374100298,6917.858,95.437,540.628,538.817,0.0
52698.0,STARLINK-4030,PAYLOAD,2024-03-08 15:14:21,15.08853335,0.0001237,53.216,190.9441,87.8921,272.2213,0.00026656,3.958e-05,0.0,0 STARLINK-4030,1 52698U 22053AU  24068.63496898  .00003958  00000-0  26656-3 0  9998,2 52698  53.2160 190.9441 0001237  87.8921 272.2213 15.08853335100714,6917.84,95.437,540.56,538.849,0.0
52698.0,STARLINK-4030,PAYLOAD,2024-03-09 11:54:22,15.08839657,9.74e-05,53.2157,187.0779,72.822,287.2879,4.1317e-05,3.7e-06,0.0,0 STARLINK-4030,1 52698U 22053AU  24069.49609297  .00000370  00000-0  41317-4 0  9999,2 52698  53.2157 187.0779 0000974  72.8220 287.2879 15.08839657100449,6917.881,95.438,540.42,539.073,0.0
52698.0,STARLINK-4030,PAYLOAD,2024-03-09 15:05:08,15.08839778,7.51e-05,53.216,186.4839,88.8533,271.2545,1.3816e-05,-6.8e-07,0.0,0 STARLINK-4030,1 52698U 22053AU  24069.62857257 -.00000068  00000-0  13816-4 0  9993,2 52698  53.2160 186.4839 0000751  88.8533 271.2545 15.08839778100863,6917.881,95.438,540.266,539.227,0.0
52698.0,STARLINK-4030,PAYLOAD,2024-03-10 11:45:10,15.08827155,0.0001331,53.2164,182.6189,87.3355,272.7789,-9.15e-05,-1.743e-05,0.0,0 STARLINK-4030,1 52698U 22053AU  24070.48970326 -.00001743  00000-0 -91500-4 0  9990,2 52698  53.2164 182.6189 0001331  87.3355 272.7789 15.08827155100596,6917.92,95.438,540.705,538.864,0.0
52698.0,STARLINK-4030,PAYLOAD,2024-03-11 13:11:20,15.08850533,0.0001311,53.2153,177.8609,91.3331,268.7811,0.00044627,6.824e-05,0.0,0 STARLINK-4030,1 52698U 22053AU  24071.54953875  .00006824  00000-0  44627-3 0  9998,2 52698  53.2153 177.8609 0001311  91.3331 268.7811 15.08850533100759,6917.848,95.437,540.62,538.806,0.0
52698.0,STARLINK-4030,PAYLOAD,2024-03-12 13:02:07,15.08842783,0.0001025,53.2152,173.3986,94.9696,265.1413,0.00036399,5.51e-05,0.0,0 STARLINK-4030,1 52698U 22053AU  24072.54314110  .00005510  00000-0  36399-3 0  9990,2 52698  53.2152 173.3986 0001025  94.9696 265.1413 15.08842783100906,6917.872,95.437,540.446,539.028,0.0
52698.0,STARLINK-4030,PAYLOAD,2024-03-13 12:52:53,15.08862361,0.0001686,53.2168,168.9357,104.1255,255.9925,0.00045782,7.01e-05,0.0,0 STARLINK-4030,1 52698U 22053AU  24073.53672917  .00007010  00000-0  45782-3 0  9995,2 52698  53.2168 168.9357 0001686 104.1255 255.9925 15.08862361101059,6917.812,95.436,540.843,538.511,0.0
52698.0,STARLINK-4030,PAYLOAD,2024-03-14 06:22:08,15.08847449,9.3e-05,53.2152,165.6662,80.0622,280.0475,0.00013301,1.83e-05,0.0,0 STARLINK-4030,1 52698U 22053AU  24074.26537091  .00001830  00000-0  13301-3 0  9995,2 52698  53.2152 165.6662 0000930  80.0622 280.0475 15.08847449101561,6917.858,95.437,540.366,539.079,0.0
52698.0,STARLINK-4030,PAYLOAD,2024-03-14 11:08:17,15.08844133,0.0001336,53.2155,164.7736,121.8323,238.2799,1.5202e-05,-4.6e-07,0.0,0 STARLINK-4030,1 52698U 22053AU  24074.46408966 -.00000046  00000-0  15202-4 0  9997,2 52698  53.2155 164.7736 0001336 121.8323 238.2799 15.08844133101199,6917.868,95.437,540.657,538.809,0.0
52698.0,STARLINK-4030,PAYLOAD,2024-03-15 09:23:41,15.08831757,0.0001567,53.2167,160.6083,101.3353,258.7815,-0.0001597,-2.828e-05,0.0,0 STARLINK-4030,1 52698U 22053AU  24075.39145811 -.00002828  00000-0 -15970-3 0  9999,2 52698  53.2167 160.6083 0001567 101.3353 258.7815 15.08831757101334,6917.906,95.438,540.855,538.687,0.0
52698.0,STARLINK-4030,PAYLOAD,2024-03-16 10:49:52,15.08829062,0.0001646,53.2173,155.8557,112.8991,247.2175,0.00012604,1.718e-05,0.0,0 STARLINK-4030,1 52698U 22053AU  24076.45130660  .00001718  00000-0  12604-3 0  9999,2 52698  53.2173 155.8557 0001646 112.8991 247.2175 15.08829062101491,6917.914,95.438,540.918,538.64,0.0
52698.0,STARLINK-4030,PAYLOAD,2024-03-17 12:16:03,15.08838504,0.0001342,53.216,151.0967,88.3756,271.7389,0.00018557,2.667e-05,0.0,0 STARLINK-4030,1 52698U 22053AU  24077.51114650  .00002667  00000-0  18557-3 0  9995,2 52698  53.2160 151.0967 0001342  88.3756 271.7389 15.08838504101657,6917.885,95.438,540.678,538.822,0.0
52698.0,STARLINK-4030,PAYLOAD,2024-03-18 12:06:50,15.08840521,0.0001474,53.2164,146.6364,83.845,276.271,0.00011766,1.585e-05,0.0,0 STARLINK-4030,1 52698U 22053AU  24078.50475011  .00001585  00000-0  11766-3 0  9999,2 52698  53.2164 146.6364 0001474  83.8450 276.2710 15.08840521102201,6917.879,95.438,540.763,538.724,0.0
52698.0,STARLINK-4030,PAYLOAD,2024-03-19 04:00:41,15.08845608,0.0001756,53.2167,143.6636,70.8752,289.243,0.00013175,1.81e-05,0.0,0 STARLINK-4030,1 52698U 22053AU  24079.16714825  .00001810  00000-0  13175-3 0  9998,2 52698  53.2167 143.6636 0001756  70.8752 289.2430 15.08845608101907,6917.863,95.437,540.943,538.513,0.0
52698.0,STARLINK-4030,PAYLOAD,2024-03-19 11:57:36,15.08853219,0.0001872,53.2161,142.1774,69.1102,291.009,0.00026448,3.925e-05,0.0,0 STARLINK-4030,1 52698U 22053AU  24079.49834359  .00003925  00000-0  26448-3 0  9995,2 52698  53.2161 142.1774 0001872  69.1102 291.0090 15.08853219101952,6917.84,95.437,541.0,538.41,0.0
52698.0,STARLINK-4030,PAYLOAD,2024-03-20 08:37:38,15.08840988,0.000163,53.2153,138.3062,121.3227,238.7925,2.8511e-05,1.66e-06,0.0,0 STARLINK-4030,1 52698U 22053AU  24080.35946787  .00000166  00000-0  28511-4 0  9999,2 52698  53.2153 138.3062 0001630 121.3227 238.7925 15.08840988102080,6917.877,95.437,540.87,538.615,0.0
52698.0,STARLINK-4030,PAYLOAD,2024-03-21 10:03:48,15.08848605,0.0001549,53.2154,133.5507,94.5944,265.5225,0.00025219,3.729e-05,0.0,0 STARLINK-4030,1 52698U 22053AU  24081.41930867  .00003729  00000-0  25219-3 0  9998,2 52698  53.2154 133.5507 0001549  94.5944 265.5225 15.08848605102241,6917.854,95.437,540.791,538.648,0.0
